[{"OBJECT_NAME":"ION SCV-015","OBJECT_ID":"2023-185H","EPOCH":"2026-03-09T22:36:51.209568","MEAN_MOTION":15.3163624,"ECCENTRICITY":0.00109059,"INCLINATION":97.5772,"RA_OF_ASC_NODE":155.3582,"ARG_OF_PERICENTER":92.3805,"MEAN_ANOMALY":267.8685,"EPHEMERIS_TYPE":0,"CLASSIFICATION_TYPE":"U","NORAD_CAT_ID":58469,"ELEMENT_SET_NO":999,"REV_AT_EPOCH":12588,"BSTAR":0.00030895808,"MEAN_MOTION_DOT":9.376e-5,"MEAN_MOTION_DDOT":0},{"OBJECT_NAME":"STARLINK-32582","OBJECT_ID":"2024-216B","EPOCH":"2026-03-09T16:23:43.988064","MEAN_MOTION":15.27572071,"ECCENTRICITY":0.00016042,"INCLINATION":42.9967,"RA_OF_ASC_NODE":263.3647,"ARG_OF_PERICENTER":250.8388,"MEAN_ANOMALY":109.229,"EPHEMERIS_TYPE":0,"CLASSIFICATION_TYPE":"U","NORAD_CAT_ID":62033,"ELEMENT_SET_NO":999,"REV_AT_EPOCH":7379,"BSTAR":0.0011402446,"MEAN_MOTION_DOT":0.00031241,"MEAN_MOTION_DDOT":0}]
